STARLINK-6126           
1 56124U 23046AJ  25216.55054553  .00000671  00000+0  64757-4 0  9997
2 56124  43.0024 246.2756 0001453 278.3890  81.6788 15.02531672129546
STARLINK-6119           
1 56125U 23046AK  25216.14168093  .00000018  00000+0  16373-4 0  9994
2 56125  43.0025 248.3635 0001177 280.2713  79.7997 15.02535922129481
STARLINK-6124           
1 56126U 23046AL  25216.53388619  .00000460  00000+0  49136-4 0  9990
2 56126  43.0023 246.1477 0001164 273.8804  86.1905 15.02536268129547
STARLINK-6104           
1 56127U 23046AM  25216.45963917  .00000362  00000+0  41864-4 0  9993
2 56127  43.0026 246.4461 0001267 274.5454  85.5244 15.02535531129530
STARLINK-6122           
1 56128U 23046AN  25216.47629156  .00000593  00000+0  58985-4 0  9998
2 56128  43.0020 246.5726 0001232 270.1824  89.8877 15.02534443129535
STARLINK-6121           
1 56129U 23046AP  25216.06515374  .00000140  00000+0  25417-4 0  9992
2 56129  43.0033 196.7555 0001129 278.1418  81.9296 15.02527123130074
STARLINK-6117           
1 56130U 23046AQ  25216.13169329  .00000571  00000+0  57339-4 0  9993
2 56130  43.0028 248.2915 0001251 275.2414  84.8285 15.02533764129484
STARLINK-6120           
1 56131U 23046AR  25216.51615157 -.00001837  00000+0 -12098-3 0  9991
2 56131  43.0048 246.0167 0002620 301.1253  58.9332 15.02516931129542
STARLINK-6071           
1 56132U 23046AS  25216.46075345 -.00000217  00000+0 -10143-5 0  9997
2 56132  43.0021 246.4612 0001534 274.3210  85.7457 15.02533412129538
STARLINK-5566           
1 56133U 23046AT  25216.10727298  .00000393  00000+0  44157-4 0  9994
2 56133  43.0025 248.1026 0001483 275.0941  84.9732 15.02536857129480
STARLINK-5564           
1 56134U 23046AU  25216.39094087  .00000639  00000+0  62370-4 0  9999
2 56134  43.0021 246.7961 0001293 273.7382  86.3312 15.02536022129521
STARLINK-5489           
1 56136U 23046AW  25216.45298057  .00000216  00000+0  31039-4 0  9990
2 56136  43.0027 246.3977 0001261 272.0191  88.0507 15.02534468129535
STARLINK-5090           
1 56137U 23046AX  25216.09839139  .00000117  00000+0  23738-4 0  9990
2 56137  43.0026 248.0336 0001159 265.6569  94.4141 15.02536644129483
STARLINK-4774           
1 56138U 23046AY  25216.57929732  .00002012  00000+0  16406-3 0  9992
2 56138  43.0022 245.6290 0001385 258.8913 101.1773 15.02523839129557
STARLINK-5375           
1 56140U 23046BA  25216.44411494  .00000445  00000+0  48059-4 0  9990
2 56140  43.0024 246.3339 0001672 263.1675  96.8977 15.02533477129530
STARLINK-5377           
1 56141U 23046BB  25216.56262660  .00000078  00000+0  20823-4 0  9994
2 56141  43.0025 245.4975 0001240 274.1036  85.9665 15.02535987129555
STARLINK-5376           
1 56142U 23046BC  25216.44077106  .00000220  00000+0  31349-4 0  9995
2 56142  43.0027 246.3036 0001267 285.7362  74.3340 15.02535785129531
