[{"OBJECT_NAME":"STARLINK-6126","OBJECT_ID":"2023-046AJ","EPOCH":"2025-08-04T13:12:47.133792","MEAN_MOTION":15.02531672,"ECCENTRICITY":0.0001453,"INCLINATION":43.0024,"RA_OF_ASC_NODE":246.2756,"ARG_OF_PERICENTER":278.389,"MEAN_ANOMALY":81.6788,"EPHEMERIS_TYPE":0,"CLASSIFICATION_TYPE":"U","NORAD_CAT_ID":56124,"ELEMENT_SET_NO":999,"REV_AT_EPOCH":12954,"BSTAR":6.4757e-5,"MEAN_MOTION_DOT":6.71e-6,"MEAN_MOTION_DDOT":0},{"OBJECT_NAME":"STARLINK-6119","OBJECT_ID":"2023-046AK","EPOCH":"2025-08-04T03:24:01.232352","MEAN_MOTION":15.02535922,"ECCENTRICITY":0.0001177,"INCLINATION":43.0025,"RA_OF_ASC_NODE":248.3635,"ARG_OF_PERICENTER":280.2713,"MEAN_ANOMALY":79.7997,"EPHEMERIS_TYPE":0,"CLASSIFICATION_TYPE":"U","NORAD_CAT_ID":56125,"ELEMENT_SET_NO":999,"REV_AT_EPOCH":12948,"BSTAR":1.6373e-5,"MEAN_MOTION_DOT":1.8e-7,"MEAN_MOTION_DDOT":0},{"OBJECT_NAME":"STARLINK-6124","OBJECT_ID":"2023-046AL","EPOCH":"2025-08-04T12:48:47.766816","MEAN_MOTION":15.02536268,"ECCENTRICITY":0.0001164,"INCLINATION":43.0023,"RA_OF_ASC_NODE":246.1477,"ARG_OF_PERICENTER":273.8804,"MEAN_ANOMALY":86.1905,"EPHEMERIS_TYPE":0,"CLASSIFICATION_TYPE":"U","NORAD_CAT_ID":56126,"ELEMENT_SET_NO":999,"REV_AT_EPOCH":12954,"BSTAR":4.9136e-5,"MEAN_MOTION_DOT":4.6e-6,"MEAN_MOTION_DDOT":0},{"OBJECT_NAME":"STARLINK-6104","OBJECT_ID":"2023-046AM","EPOCH":"2025-08-04T11:01:52.824288","MEAN_MOTION":15.02535531,"ECCENTRICITY":0.0001267,"INCLINATION":43.0026,"RA_OF_ASC_NODE":246.4461,"ARG_OF_PERICENTER":274.5454,"MEAN_ANOMALY":85.5244,"EPHEMERIS_TYPE":0,"CLASSIFICATION_TYPE":"U","NORAD_CAT_ID":56127,"ELEMENT_SET_NO":999,"REV_AT_EPOCH":12953,"BSTAR":4.1864e-5,"MEAN_MOTION_DOT":3.62e-6,"MEAN_MOTION_DDOT":0},{"OBJECT_NAME":"STARLINK-6122","OBJECT_ID":"2023-046AN","EPOCH":"2025-08-04T11:25:51.590784","MEAN_MOTION":15.02534443,"ECCENTRICITY":0.0001232,"INCLINATION":43.002,"RA_OF_ASC_NODE":246.5726,"ARG_OF_PERICENTER":270.1824,"MEAN_ANOMALY":89.8877,"EPHEMERIS_TYPE":0,"CLASSIFICATION_TYPE":"U","NORAD_CAT_ID":56128,"ELEMENT_SET_NO":999,"REV_AT_EPOCH":12953,"BSTAR":5.8985e-5,"MEAN_MOTION_DOT":5.93e-6,"MEAN_MOTION_DDOT":0},{"OBJECT_NAME":"STARLINK-6121","OBJECT_ID":"2023-046AP","EPOCH":"2025-08-04T01:33:49.283136","MEAN_MOTION":15.02527123,"ECCENTRICITY":0.0001129,"INCLINATION":43.0033,"RA_OF_ASC_NODE":196.7555,"ARG_OF_PERICENTER":278.1418,"MEAN_ANOMALY":81.9296,"EPHEMERIS_TYPE":0,"CLASSIFICATION_TYPE":"U","NORAD_CAT_ID":56129,"ELEMENT_SET_NO":999,"REV_AT_EPOCH":13007,"BSTAR":2.5417e-5,"MEAN_MOTION_DOT":1.4e-6,"MEAN_MOTION_DDOT":0},{"OBJECT_NAME":"STARLINK-6117","OBJECT_ID":"2023-046AQ","EPOCH":"2025-08-04T03:09:38.300256","MEAN_MOTION":15.02533764,"ECCENTRICITY":0.0001251,"INCLINATION":43.0028,"RA_OF_ASC_NODE":248.2915,"ARG_OF_PERICENTER":275.2414,"MEAN_ANOMALY":84.8285,"EPHEMERIS_TYPE":0,"CLASSIFICATION_TYPE":"U","NORAD_CAT_ID":56130,"ELEMENT_SET_NO":999,"REV_AT_EPOCH":12948,"BSTAR":5.7339e-5,"MEAN_MOTION_DOT":5.71e-6,"MEAN_MOTION_DDOT":0},{"OBJECT_NAME":"STARLINK-6120","OBJECT_ID":"2023-046AR","EPOCH":"2025-08-04T12:23:15.495648","MEAN_MOTION":15.02516931,"ECCENTRICITY":0.000262,"INCLINATION":43.0048,"RA_OF_ASC_NODE":246.0167,"ARG_OF_PERICENTER":301.1253,"MEAN_ANOMALY":58.9332,"EPHEMERIS_TYPE":0,"CLASSIFICATION_TYPE":"U","NORAD_CAT_ID":56131,"ELEMENT_SET_NO":999,"REV_AT_EPOCH":12954,"BSTAR":-0.00012098,"MEAN_MOTION_DOT":-1.837e-5,"MEAN_MOTION_DDOT":0},{"OBJECT_NAME":"STARLINK-6071","OBJECT_ID":"2023-046AS","EPOCH":"2025-08-04T11:03:29.098080","MEAN_MOTION":15.02533412,"ECCENTRICITY":0.0001534,"INCLINATION":43.0021,"RA_OF_ASC_NODE":246.4612,"ARG_OF_PERICENTER":274.321,"MEAN_ANOMALY":85.7457,"EPHEMERIS_TYPE":0,"CLASSIFICATION_TYPE":"U","NORAD_CAT_ID":56132,"ELEMENT_SET_NO":999,"REV_AT_EPOCH":12953,"BSTAR":-1.0143e-6,"MEAN_MOTION_DOT":-2.17e-6,"MEAN_MOTION_DDOT":0},{"OBJECT_NAME":"STARLINK-5566","OBJECT_ID":"2023-046AT","EPOCH":"2025-08-04T02:34:28.385472","MEAN_MOTION":15.02536857,"ECCENTRICITY":0.0001483,"INCLINATION":43.0025,"RA_OF_ASC_NODE":248.1026,"ARG_OF_PERICENTER":275.0941,"MEAN_ANOMALY":84.9732,"EPHEMERIS_TYPE":0,"CLASSIFICATION_TYPE":"U","NORAD_CAT_ID":56133,"ELEMENT_SET_NO":999,"REV_AT_EPOCH":12948,"BSTAR":4.4157e-5,"MEAN_MOTION_DOT":3.93e-6,"MEAN_MOTION_DDOT":0},{"OBJECT_NAME":"STARLINK-5564","OBJECT_ID":"2023-046AU","EPOCH":"2025-08-04T09:22:57.291168","MEAN_MOTION":15.02536022,"ECCENTRICITY":0.0001293,"INCLINATION":43.0021,"RA_OF_ASC_NODE":246.7961,"ARG_OF_PERICENTER":273.7382,"MEAN_ANOMALY":86.3312,"EPHEMERIS_TYPE":0,"CLASSIFICATION_TYPE":"U","NORAD_CAT_ID":56134,"ELEMENT_SET_NO":999,"REV_AT_EPOCH":12952,"BSTAR":6.237e-5,"MEAN_MOTION_DOT":6.39e-6,"MEAN_MOTION_DDOT":0},{"OBJECT_NAME":"STARLINK-5489","OBJECT_ID":"2023-046AW","EPOCH":"2025-08-04T10:52:17.521248","MEAN_MOTION":15.02534468,"ECCENTRICITY":0.0001261,"INCLINATION":43.0027,"RA_OF_ASC_NODE":246.3977,"ARG_OF_PERICENTER":272.0191,"MEAN_ANOMALY":88.0507,"EPHEMERIS_TYPE":0,"CLASSIFICATION_TYPE":"U","NORAD_CAT_ID":56136,"ELEMENT_SET_NO":999,"REV_AT_EPOCH":12953,"BSTAR":3.1039e-5,"MEAN_MOTION_DOT":2.16e-6,"MEAN_MOTION_DDOT":0},{"OBJECT_NAME":"STARLINK-5090","OBJECT_ID":"2023-046AX","EPOCH":"2025-08-04T02:21:41.016096","MEAN_MOTION":15.02536644,"ECCENTRICITY":0.0001159,"INCLINATION":43.0026,"RA_OF_ASC_NODE":248.0336,"ARG_OF_PERICENTER":265.6569,"MEAN_ANOMALY":94.4141,"EPHEMERIS_TYPE":0,"CLASSIFICATION_TYPE":"U","NORAD_CAT_ID":56137,"ELEMENT_SET_NO":999,"REV_AT_EPOCH":12948,"BSTAR":2.3738e-5,"MEAN_MOTION_DOT":1.17e-6,"MEAN_MOTION_DDOT":0},{"OBJECT_NAME":"STARLINK-4774","OBJECT_ID":"2023-046AY","EPOCH":"2025-08-04T13:54:11.288448","MEAN_MOTION":15.02523839,"ECCENTRICITY":0.0001385,"INCLINATION":43.0022,"RA_OF_ASC_NODE":245.629,"ARG_OF_PERICENTER":258.8913,"MEAN_ANOMALY":101.1773,"EPHEMERIS_TYPE":0,"CLASSIFICATION_TYPE":"U","NORAD_CAT_ID":56138,"ELEMENT_SET_NO":999,"REV_AT_EPOCH":12955,"BSTAR":0.00016406,"MEAN_MOTION_DOT":2.012e-5,"MEAN_MOTION_DDOT":0},{"OBJECT_NAME":"STARLINK-5375","OBJECT_ID":"2023-046BA","EPOCH":"2025-08-04T10:39:31.530816","MEAN_MOTION":15.02533477,"ECCENTRICITY":0.0001672,"INCLINATION":43.0024,"RA_OF_ASC_NODE":246.3339,"ARG_OF_PERICENTER":263.1675,"MEAN_ANOMALY":96.8977,"EPHEMERIS_TYPE":0,"CLASSIFICATION_TYPE":"U","NORAD_CAT_ID":56140,"ELEMENT_SET_NO":999,"REV_AT_EPOCH":12953,"BSTAR":4.8059e-5,"MEAN_MOTION_DOT":4.45e-6,"MEAN_MOTION_DDOT":0},{"OBJECT_NAME":"STARLINK-5377","OBJECT_ID":"2023-046BB","EPOCH":"2025-08-04T13:30:10.938240","MEAN_MOTION":15.02535987,"ECCENTRICITY":0.000124,"INCLINATION":43.0025,"RA_OF_ASC_NODE":245.4975,"ARG_OF_PERICENTER":274.1036,"MEAN_ANOMALY":85.9665,"EPHEMERIS_TYPE":0,"CLASSIFICATION_TYPE":"U","NORAD_CAT_ID":56141,"ELEMENT_SET_NO":999,"REV_AT_EPOCH":12955,"BSTAR":2.0823e-5,"MEAN_MOTION_DOT":7.8e-7,"MEAN_MOTION_DDOT":0},{"OBJECT_NAME":"STARLINK-5376","OBJECT_ID":"2023-046BC","EPOCH":"2025-08-04T10:34:42.619584","MEAN_MOTION":15.02535785,"ECCENTRICITY":0.0001267,"INCLINATION":43.0027,"RA_OF_ASC_NODE":246.3036,"ARG_OF_PERICENTER":285.7362,"MEAN_ANOMALY":74.334,"EPHEMERIS_TYPE":0,"CLASSIFICATION_TYPE":"U","NORAD_CAT_ID":56142,"ELEMENT_SET_NO":999,"REV_AT_EPOCH":12953,"BSTAR":3.1349e-5,"MEAN_MOTION_DOT":2.2e-6,"MEAN_MOTION_DDOT":0}]
